<?xml version="1.0" encoding="UTF-8"?>
<ndm xmlns:xsi="http://www.w3.org/2001/XMLSchema-instance" xsi:noNamespaceSchemaLocation="https://sanaregistry.org/r/ndmxml_unqualified/ndmxml-2.0.0-master-2.0.xsd">
<omm id="CCSDS_OMM_VERS" version="2.0">
<header><CREATION_DATE/><ORIGINATOR/></header><body><segment><metadata><OBJECT_NAME>ONEWEB-0278</OBJECT_NAME><OBJECT_ID>2021-060AF</OBJECT_ID><CENTER_NAME>EARTH</CENTER_NAME><REF_FRAME>TEME</REF_FRAME><TIME_SYSTEM>UTC</TIME_SYSTEM><MEAN_ELEMENT_THEORY>SGP4</MEAN_ELEMENT_THEORY></metadata><data><meanElements><EPOCH>2025-12-22T11:55:31.730592</EPOCH><MEAN_MOTION>13.16595417</MEAN_MOTION><ECCENTRICITY>.00014267</ECCENTRICITY><INCLINATION>87.9048</INCLINATION><RA_OF_ASC_NODE>263.9536</RA_OF_ASC_NODE><ARG_OF_PERICENTER>77.5185</ARG_OF_PERICENTER><MEAN_ANOMALY>282.6105</MEAN_ANOMALY></meanElements><tleParameters><EPHEMERIS_TYPE>0</EPHEMERIS_TYPE><CLASSIFICATION_TYPE>U</CLASSIFICATION_TYPE><NORAD_CAT_ID>48996</NORAD_CAT_ID><ELEMENT_SET_NO>999</ELEMENT_SET_NO><REV_AT_EPOCH>21644</REV_AT_EPOCH><BSTAR>.4402578E-3</BSTAR><MEAN_MOTION_DOT>.181E-5</MEAN_MOTION_DOT><MEAN_MOTION_DDOT>0</MEAN_MOTION_DDOT></tleParameters></data></segment></body></omm>
<omm id="CCSDS_OMM_VERS" version="2.0">
<header><CREATION_DATE/><ORIGINATOR/></header><body><segment><metadata><OBJECT_NAME>ONEWEB-0279</OBJECT_NAME><OBJECT_ID>2021-060AG</OBJECT_ID><CENTER_NAME>EARTH</CENTER_NAME><REF_FRAME>TEME</REF_FRAME><TIME_SYSTEM>UTC</TIME_SYSTEM><MEAN_ELEMENT_THEORY>SGP4</MEAN_ELEMENT_THEORY></metadata><data><meanElements><EPOCH>2025-12-22T12:06:57.358656</EPOCH><MEAN_MOTION>13.16595820</MEAN_MOTION><ECCENTRICITY>.00019445</ECCENTRICITY><INCLINATION>87.9044</INCLINATION><RA_OF_ASC_NODE>263.9504</RA_OF_ASC_NODE><ARG_OF_PERICENTER>68.0404</ARG_OF_PERICENTER><MEAN_ANOMALY>292.0934</MEAN_ANOMALY></meanElements><tleParameters><EPHEMERIS_TYPE>0</EPHEMERIS_TYPE><CLASSIFICATION_TYPE>U</CLASSIFICATION_TYPE><NORAD_CAT_ID>48997</NORAD_CAT_ID><ELEMENT_SET_NO>999</ELEMENT_SET_NO><REV_AT_EPOCH>21637</REV_AT_EPOCH><BSTAR>.17284845E-4</BSTAR><MEAN_MOTION_DOT>.19E-6</MEAN_MOTION_DOT><MEAN_MOTION_DDOT>0</MEAN_MOTION_DDOT></tleParameters></data></segment></body></omm>
<omm id="CCSDS_OMM_VERS" version="2.0">
<header><CREATION_DATE/><ORIGINATOR/></header><body><segment><metadata><OBJECT_NAME>ONEWEB-0280</OBJECT_NAME><OBJECT_ID>2021-060AH</OBJECT_ID><CENTER_NAME>EARTH</CENTER_NAME><REF_FRAME>TEME</REF_FRAME><TIME_SYSTEM>UTC</TIME_SYSTEM><MEAN_ELEMENT_THEORY>SGP4</MEAN_ELEMENT_THEORY></metadata><data><meanElements><EPOCH>2025-12-21T23:42:33.594048</EPOCH><MEAN_MOTION>13.16594803</MEAN_MOTION><ECCENTRICITY>.0001435</ECCENTRICITY><INCLINATION>87.9040</INCLINATION><RA_OF_ASC_NODE>264.0586</RA_OF_ASC_NODE><ARG_OF_PERICENTER>63.3100</ARG_OF_PERICENTER><MEAN_ANOMALY>296.8177</MEAN_ANOMALY></meanElements><tleParameters><EPHEMERIS_TYPE>0</EPHEMERIS_TYPE><CLASSIFICATION_TYPE>U</CLASSIFICATION_TYPE><NORAD_CAT_ID>48998</NORAD_CAT_ID><ELEMENT_SET_NO>999</ELEMENT_SET_NO><REV_AT_EPOCH>21624</REV_AT_EPOCH><BSTAR>.16471E-3</BSTAR><MEAN_MOTION_DOT>.76E-6</MEAN_MOTION_DOT><MEAN_MOTION_DDOT>0</MEAN_MOTION_DDOT></tleParameters></data></segment></body></omm>
<omm id="CCSDS_OMM_VERS" version="2.0">
<header><CREATION_DATE/><ORIGINATOR/></header><body><segment><metadata><OBJECT_NAME>ONEWEB-0281</OBJECT_NAME><OBJECT_ID>2021-060AJ</OBJECT_ID><CENTER_NAME>EARTH</CENTER_NAME><REF_FRAME>TEME</REF_FRAME><TIME_SYSTEM>UTC</TIME_SYSTEM><MEAN_ELEMENT_THEORY>SGP4</MEAN_ELEMENT_THEORY></metadata><data><meanElements><EPOCH>2025-12-22T10:47:09.157056</EPOCH><MEAN_MOTION>13.16590649</MEAN_MOTION><ECCENTRICITY>.00018417</ECCENTRICITY><INCLINATION>87.9058</INCLINATION><RA_OF_ASC_NODE>263.9627</RA_OF_ASC_NODE><ARG_OF_PERICENTER>77.8043</ARG_OF_PERICENTER><MEAN_ANOMALY>282.3295</MEAN_ANOMALY></meanElements><tleParameters><EPHEMERIS_TYPE>0</EPHEMERIS_TYPE><CLASSIFICATION_TYPE>U</CLASSIFICATION_TYPE><NORAD_CAT_ID>48999</NORAD_CAT_ID><ELEMENT_SET_NO>999</ELEMENT_SET_NO><REV_AT_EPOCH>21637</REV_AT_EPOCH><BSTAR>-.17066936E-3</BSTAR><MEAN_MOTION_DOT>-.52E-6</MEAN_MOTION_DOT><MEAN_MOTION_DDOT>0</MEAN_MOTION_DDOT></tleParameters></data></segment></body></omm>
<omm id="CCSDS_OMM_VERS" version="2.0">
<header><CREATION_DATE/><ORIGINATOR/></header><body><segment><metadata><OBJECT_NAME>ONEWEB-0282</OBJECT_NAME><OBJECT_ID>2021-060AK</OBJECT_ID><CENTER_NAME>EARTH</CENTER_NAME><REF_FRAME>TEME</REF_FRAME><TIME_SYSTEM>UTC</TIME_SYSTEM><MEAN_ELEMENT_THEORY>SGP4</MEAN_ELEMENT_THEORY></metadata><data><meanElements><EPOCH>2025-12-22T06:02:08.837952</EPOCH><MEAN_MOTION>13.16593860</MEAN_MOTION><ECCENTRICITY>.00016864</ECCENTRICITY><INCLINATION>87.9045</INCLINATION><RA_OF_ASC_NODE>264.0124</RA_OF_ASC_NODE><ARG_OF_PERICENTER>68.7885</ARG_OF_PERICENTER><MEAN_ANOMALY>291.3426</MEAN_ANOMALY></meanElements><tleParameters><EPHEMERIS_TYPE>0</EPHEMERIS_TYPE><CLASSIFICATION_TYPE>U</CLASSIFICATION_TYPE><NORAD_CAT_ID>49000</NORAD_CAT_ID><ELEMENT_SET_NO>999</ELEMENT_SET_NO><REV_AT_EPOCH>21632</REV_AT_EPOCH><BSTAR>-.79543351E-3</BSTAR><MEAN_MOTION_DOT>-.291E-5</MEAN_MOTION_DOT><MEAN_MOTION_DDOT>0</MEAN_MOTION_DDOT></tleParameters></data></segment></body></omm>
<omm id="CCSDS_OMM_VERS" version="2.0">
<header><CREATION_DATE/><ORIGINATOR/></header><body><segment><metadata><OBJECT_NAME>ONEWEB-0283</OBJECT_NAME><OBJECT_ID>2021-060AL</OBJECT_ID><CENTER_NAME>EARTH</CENTER_NAME><REF_FRAME>TEME</REF_FRAME><TIME_SYSTEM>UTC</TIME_SYSTEM><MEAN_ELEMENT_THEORY>SGP4</MEAN_ELEMENT_THEORY></metadata><data><meanElements><EPOCH>2025-12-22T07:35:38.450400</EPOCH><MEAN_MOTION>13.16591880</MEAN_MOTION><ECCENTRICITY>.0001814</ECCENTRICITY><INCLINATION>87.9049</INCLINATION><RA_OF_ASC_NODE>264.0000</RA_OF_ASC_NODE><ARG_OF_PERICENTER>70.2800</ARG_OF_PERICENTER><MEAN_ANOMALY>289.8526</MEAN_ANOMALY></meanElements><tleParameters><EPHEMERIS_TYPE>0</EPHEMERIS_TYPE><CLASSIFICATION_TYPE>U</CLASSIFICATION_TYPE><NORAD_CAT_ID>49001</NORAD_CAT_ID><ELEMENT_SET_NO>999</ELEMENT_SET_NO><REV_AT_EPOCH>21634</REV_AT_EPOCH><BSTAR>-.10250464E-3</BSTAR><MEAN_MOTION_DOT>-.26E-6</MEAN_MOTION_DOT><MEAN_MOTION_DDOT>0</MEAN_MOTION_DDOT></tleParameters></data></segment></body></omm>
<omm id="CCSDS_OMM_VERS" version="2.0">
<header><CREATION_DATE/><ORIGINATOR/></header><body><segment><metadata><OBJECT_NAME>ONEWEB-0284</OBJECT_NAME><OBJECT_ID>2021-060AM</OBJECT_ID><CENTER_NAME>EARTH</CENTER_NAME><REF_FRAME>TEME</REF_FRAME><TIME_SYSTEM>UTC</TIME_SYSTEM><MEAN_ELEMENT_THEORY>SGP4</MEAN_ELEMENT_THEORY></metadata><data><meanElements><EPOCH>2025-12-22T07:26:30.422976</EPOCH><MEAN_MOTION>13.16594259</MEAN_MOTION><ECCENTRICITY>.00013096</ECCENTRICITY><INCLINATION>87.9053</INCLINATION><RA_OF_ASC_NODE>263.9904</RA_OF_ASC_NODE><ARG_OF_PERICENTER>67.3211</ARG_OF_PERICENTER><MEAN_ANOMALY>292.8058</MEAN_ANOMALY></meanElements><tleParameters><EPHEMERIS_TYPE>0</EPHEMERIS_TYPE><CLASSIFICATION_TYPE>U</CLASSIFICATION_TYPE><NORAD_CAT_ID>49002</NORAD_CAT_ID><ELEMENT_SET_NO>999</ELEMENT_SET_NO><REV_AT_EPOCH>21632</REV_AT_EPOCH><BSTAR>-.74125551E-3</BSTAR><MEAN_MOTION_DOT>-.271E-5</MEAN_MOTION_DOT><MEAN_MOTION_DDOT>0</MEAN_MOTION_DDOT></tleParameters></data></segment></body></omm>
<omm id="CCSDS_OMM_VERS" version="2.0">
<header><CREATION_DATE/><ORIGINATOR/></header><body><segment><metadata><OBJECT_NAME>ONEWEB-0285</OBJECT_NAME><OBJECT_ID>2021-075A</OBJECT_ID><CENTER_NAME>EARTH</CENTER_NAME><REF_FRAME>TEME</REF_FRAME><TIME_SYSTEM>UTC</TIME_SYSTEM><MEAN_ELEMENT_THEORY>SGP4</MEAN_ELEMENT_THEORY></metadata><data><meanElements><EPOCH>2025-12-22T13:41:31.968096</EPOCH><MEAN_MOTION>13.12501727</MEAN_MOTION><ECCENTRICITY>.00014681</ECCENTRICITY><INCLINATION>87.8940</INCLINATION><RA_OF_ASC_NODE>25.7377</RA_OF_ASC_NODE><ARG_OF_PERICENTER>96.6419</ARG_OF_PERICENTER><MEAN_ANOMALY>263.4877</MEAN_ANOMALY></meanElements><tleParameters><EPHEMERIS_TYPE>0</EPHEMERIS_TYPE><CLASSIFICATION_TYPE>U</CLASSIFICATION_TYPE><NORAD_CAT_ID>49075</NORAD_CAT_ID><ELEMENT_SET_NO>999</ELEMENT_SET_NO><REV_AT_EPOCH>21204</REV_AT_EPOCH><BSTAR>-.12483679E-1</BSTAR><MEAN_MOTION_DOT>-.448E-4</MEAN_MOTION_DOT><MEAN_MOTION_DDOT>0</MEAN_MOTION_DDOT></tleParameters></data></segment></body></omm>
<omm id="CCSDS_OMM_VERS" version="2.0">
<header><CREATION_DATE/><ORIGINATOR/></header><body><segment><metadata><OBJECT_NAME>ONEWEB-0286</OBJECT_NAME><OBJECT_ID>2021-075B</OBJECT_ID><CENTER_NAME>EARTH</CENTER_NAME><REF_FRAME>TEME</REF_FRAME><TIME_SYSTEM>UTC</TIME_SYSTEM><MEAN_ELEMENT_THEORY>SGP4</MEAN_ELEMENT_THEORY></metadata><data><meanElements><EPOCH>2025-12-22T11:26:58.035840</EPOCH><MEAN_MOTION>13.12435013</MEAN_MOTION><ECCENTRICITY>.00018907</ECCENTRICITY><INCLINATION>87.8926</INCLINATION><RA_OF_ASC_NODE>25.7908</RA_OF_ASC_NODE><ARG_OF_PERICENTER>101.0707</ARG_OF_PERICENTER><MEAN_ANOMALY>259.0634</MEAN_ANOMALY></meanElements><tleParameters><EPHEMERIS_TYPE>0</EPHEMERIS_TYPE><CLASSIFICATION_TYPE>U</CLASSIFICATION_TYPE><NORAD_CAT_ID>49076</NORAD_CAT_ID><ELEMENT_SET_NO>999</ELEMENT_SET_NO><REV_AT_EPOCH>21138</REV_AT_EPOCH><BSTAR>.42973741E-2</BSTAR><MEAN_MOTION_DOT>.1559E-4</MEAN_MOTION_DOT><MEAN_MOTION_DDOT>0</MEAN_MOTION_DDOT></tleParameters></data></segment></body></omm>

</ndm>
